{
  "type": "FeatureCollection",
  "features": [
    {
      "type": "Feature",
      "properties": {
        "norad_id": 50032,
        "name": "COSMOS 1408 DEB",
        "group": "cosmos-1408-debris",
        "lat": 11.808936991730183,
        "lon": 68.78586784029044,
        "alt_km": 437.6091837313834,
        "timestamp": "2025-12-04T05:42:43.643473+00:00",
        "meta_object_name": "COSMOS 1408 DEB",
        "meta_object_id": "1982-092RU",
        "meta_epoch": "2025-12-03T12:34:05.445696",
        "meta_mean_motion": 15.45544262,
        "meta_eccentricity": 0.0014683,
        "meta_inclination": 82.5656,
        "meta_ra_of_asc_node": 67.9532,
        "meta_arg_of_pericenter": 244.7236,
        "meta_mean_anomaly": 115.2492,
        "meta_ephemeris_type": 0,
        "meta_classification_type": "U",
        "meta_norad_cat_id": 50032,
        "meta_element_set_no": 999,
        "meta_rev_at_epoch": 22461,
        "meta_bstar": 0.0001592626,
        "meta_mean_motion_dot": 7.716e-05,
        "meta_mean_motion_ddot": 0,
        "tle_line1": "1 50032U 82092RU  25337.52367414  .00007716  00000+0  15926-3 0  9999",
        "tle_line2": "2 50032  82.5656  67.9532 0014683 244.7236 115.2492 15.45544262224613"
      },
      "geometry": {
        "type": "Point",
        "coordinates": [
          68.78586784029044,
          11.808936991730183
        ]
      }
    },
    {
      "type": "Feature",
      "properties": {
        "norad_id": 50058,
        "name": "COSMOS 1408 DEB",
        "group": "cosmos-1408-debris",
        "lat": 20.251314415487194,
        "lon": 80.97715343846204,
        "alt_km": 381.7136900177793,
        "timestamp": "2025-12-04T05:42:43.643494+00:00",
        "meta_object_name": "COSMOS 1408 DEB",
        "meta_object_id": "1982-092SW",
        "meta_epoch": "2025-12-03T17:20:05.925984",
        "meta_mean_motion": 15.63277403,
        "meta_eccentricity": 0.00162764,
        "meta_inclination": 82.6139,
        "meta_ra_of_asc_node": 78.7729,
        "meta_arg_of_pericenter": 130.9471,
        "meta_mean_anomaly": 229.3199,
        "meta_ephemeris_type": 0,
        "meta_classification_type": "U",
        "meta_norad_cat_id": 50058,
        "meta_element_set_no": 999,
        "meta_rev_at_epoch": 22663,
        "meta_bstar": 0.0004703099,
        "meta_mean_motion_dot": 0.00043555,
        "meta_mean_motion_ddot": 0,
        "tle_line1": "1 50058U 82092SW  25337.72229081  .00043555  00000+0  47031-3 0  9999",
        "tle_line2": "2 50058  82.6139  78.7729 0016276 130.9471 229.3199 15.63277403226638"
      },
      "geometry": {
        "type": "Point",
        "coordinates": [
          80.97715343846204,
          20.251314415487194
        ]
      }
    },
    {
      "type": "Feature",
      "properties": {
        "norad_id": 50404,
        "name": "COSMOS 1408 DEB",
        "group": "cosmos-1408-debris",
        "lat": -63.19466400896809,
        "lon": 59.452233051790614,
        "alt_km": 420.2912178387005,
        "timestamp": "2025-12-04T05:42:43.643507+00:00",
        "meta_object_name": "COSMOS 1408 DEB",
        "meta_object_id": "1982-092ADS",
        "meta_epoch": "2025-12-03T17:30:42.573024",
        "meta_mean_motion": 15.11852936,
        "meta_eccentricity": 0.01762184,
        "meta_inclination": 82.2071,
        "meta_ra_of_asc_node": 224.2439,
        "meta_arg_of_pericenter": 230.1251,
        "meta_mean_anomaly": 128.4371,
        "meta_ephemeris_type": 0,
        "meta_classification_type": "U",
        "meta_norad_cat_id": 50404,
        "meta_element_set_no": 999,
        "meta_rev_at_epoch": 21057,
        "meta_bstar": 0.0038746901,
        "meta_mean_motion_dot": 0.00097797,
        "meta_mean_motion_ddot": 0,
        "tle_line1": "1 50404U 82092ADS 25337.72965941  .00097797  00000+0  38747-2 0  9996",
        "tle_line2": "2 50404  82.2071 224.2439 0176218 230.1251 128.4371 15.11852936210572"
      },
      "geometry": {
        "type": "Point",
        "coordinates": [
          59.452233051790614,
          -63.19466400896809
        ]
      }
    },
    {
      "type": "Feature",
      "properties": {
        "norad_id": 50621,
        "name": "COSMOS 1408 DEB",
        "group": "cosmos-1408-debris",
        "lat": -80.04512577630149,
        "lon": -48.94560136322075,
        "alt_km": 403.1551625625734,
        "timestamp": "2025-12-04T05:42:43.643519+00:00",
        "meta_object_name": "COSMOS 1408 DEB",
        "meta_object_id": "1982-092ALR",
        "meta_epoch": "2025-12-03T13:08:59.567424",
        "meta_mean_motion": 15.55913767,
        "meta_eccentricity": 0.00288787,
        "meta_inclination": 82.5707,
        "meta_ra_of_asc_node": 83.7436,
        "meta_arg_of_pericenter": 186.1863,
        "meta_mean_anomaly": 173.904,
        "meta_ephemeris_type": 0,
        "meta_classification_type": "U",
        "meta_norad_cat_id": 50621,
        "meta_element_set_no": 999,
        "meta_rev_at_epoch": 22107,
        "meta_bstar": 0.00051677331,
        "meta_mean_motion_dot": 0.00036634,
        "meta_mean_motion_ddot": 0,
        "tle_line1": "1 50621U 82092ALR 25337.54791166  .00036634  00000+0  51677-3 0  9994",
        "tle_line2": "2 50621  82.5707  83.7436 0028878 186.1863 173.9040 15.55913767221077"
      },
      "geometry": {
        "type": "Point",
        "coordinates": [
          -48.94560136322075,
          -80.04512577630149
        ]
      }
    }
  ]
}